NORAD_CAT_ID,OBJECT_NAME,OBJECT_TYPE,EPOCH,MEAN_MOTION,ECCENTRICITY,INCLINATION,RA_OF_ASC_NODE,ARG_OF_PERICENTER,MEAN_ANOMALY,BSTAR,MEAN_MOTION_DOT,MEAN_MOTION_DDOT,TLE_LINE0,TLE_LINE1,TLE_LINE2,SEMIMAJOR_AXIS,PERIOD,APOGEE,PERIGEE,DECAYED
49451.0,STARLINK-3125,PAYLOAD,2024-03-17 09:33:06,15.08818053,0.0001264,53.2161,221.6118,98.1889,261.9247,0.00046527,7.12e-05,0.0,0 STARLINK-3125,1 49451U 21104AV  24077.39798694  .00007120  00000-0  46527-3 0  9993,2 49451  53.2161 221.6118 0001264  98.1889 261.9247 15.08818053130813,6917.947,95.439,540.687,538.938,0.0
49451.0,STARLINK-3125,PAYLOAD,2024-03-17 14:19:14,15.08848971,0.0001357,53.216,220.7214,89.5413,270.5734,0.001006,0.00015763,0.0,0 STARLINK-3125,1 49451U 21104AV  24077.59669945  .00015763  00000-0  10060-2 0  9995,2 49451  53.2160 220.7214 0001357  89.5413 270.5734 15.08848971129760,6917.853,95.437,540.657,538.779,0.0
49451.0,STARLINK-3125,PAYLOAD,2024-03-17 19:05:22,15.08894753,0.0001079,53.2159,219.8279,82.8841,277.2274,0.0017599,0.00027874,0.0,0 STARLINK-3125,1 49451U 21104AV  24077.79539953  .00027874  00000-0  17599-2 0  9992,2 49451  53.2159 219.8279 0001079  82.8841 277.2274 15.08894753130876,6917.713,95.434,540.324,538.832,0.0
49451.0,STARLINK-3125,PAYLOAD,2024-03-18 12:34:38,15.08849545,0.0001193,53.2168,216.5562,86.8424,273.2705,0.00028299,4.22e-05,0.0,0 STARLINK-3125,1 49451U 21104AV  24078.52405434  .00004220  00000-0  28299-3 0  9990,2 49451  53.2168 216.5562 0001193  86.8424 273.2705 15.08849545130989,6917.851,95.437,540.542,538.891,0.0
49451.0,STARLINK-3125,PAYLOAD,2024-03-18 18:56:10,15.08842813,0.0001155,53.217,215.3719,25.0393,335.0655,-0.00012924,-2.344e-05,0.0,0 STARLINK-3125,1 49451U 21104AV  24078.78901465 -.00002344  00000-0 -12924-3 0  9998,2 49451  53.2170 215.3719 0001155  25.0393 335.0655 15.08842813129947,6917.872,95.437,540.536,538.938,0.0
49451.0,STARLINK-3125,PAYLOAD,2024-03-19 12:25:25,15.08848997,0.0001538,53.2169,212.0976,91.9085,268.2083,0.00066914,0.0001038,0.0,0 STARLINK-3125,1 49451U 21104AV  24079.51765934  .00010380  00000-0  66914-3 0  9994,2 49451  53.2169 212.0976 0001538  91.9085 268.2083 15.08848997130054,6917.853,95.437,540.782,538.654,0.0
49451.0,STARLINK-3125,PAYLOAD,2024-03-20 09:05:27,15.0883465,0.0001614,53.2171,208.231,99.7786,260.3388,0.00023958,3.526e-05,0.0,0 STARLINK-3125,1 49451U 21104AV  24080.37878842  .00003526  00000-0  23958-3 0  9998,2 49451  53.2171 208.2310 0001614  99.7786 260.3388 15.08834650131261,6917.897,95.438,540.878,538.645,0.0
49451.0,STARLINK-3125,PAYLOAD,2024-03-20 13:51:36,15.08837282,0.0001544,53.2159,207.3416,102.9675,257.149,0.00042804,6.53e-05,0.0,0 STARLINK-3125,1 49451U 21104AV  24080.57751006  .00006530  00000-0  42804-3 0  9991,2 49451  53.2159 207.3416 0001544 102.9675 257.1490 15.08837282130216,6917.889,95.438,540.822,538.686,0.0
49451.0,STARLINK-3125,PAYLOAD,2024-03-20 15:27:00,15.08838917,0.0001508,53.2159,207.0432,102.7118,257.4043,0.00058131,8.975e-05,0.0,0 STARLINK-3125,1 49451U 21104AV  24080.64375050  .00008975  00000-0  58131-3 0  9995,2 49451  53.2159 207.0432 0001508 102.7118 257.4043 15.08838917130225,6917.884,95.438,540.792,538.705,0.0
49451.0,STARLINK-3125,PAYLOAD,2024-03-21 13:42:24,15.08849987,0.0001607,53.2164,202.8807,101.2414,258.8758,0.00074051,0.0001152,0.0,0 STARLINK-3125,1 49451U 21104AV  24081.57111185  .00011520  00000-0  74051-3 0  9994,2 49451  53.2164 202.8807 0001607 101.2414 258.8758 15.08849987131445,6917.85,95.437,540.827,538.603,0.0
49451.0,STARLINK-3125,PAYLOAD,2024-03-21 15:17:47,15.08854113,0.0001505,53.2164,202.5845,100.261,259.8552,0.00083616,0.0001305,0.0,0 STARLINK-3125,1 49451U 21104AV  24081.63735072  .00013050  00000-0  83616-3 0  9995,2 49451  53.2164 202.5845 0001505 100.2610 259.8552 15.08854113130379,6917.837,95.437,540.743,538.661,0.0
49451.0,STARLINK-3125,PAYLOAD,2024-03-22 11:57:47,15.08855361,0.0001363,53.2155,198.719,95.7534,264.3613,0.00025694,3.805e-05,0.0,0 STARLINK-3125,1 49451U 21104AV  24082.49846363  .00003805  00000-0  25694-3 0  9995,2 49451  53.2155 198.7190 0001363  95.7534 264.3613 15.08855361131582,6917.833,95.437,540.641,538.756,0.0
49451.0,STARLINK-3125,PAYLOAD,2024-03-22 13:33:10,15.08856718,0.0001467,53.2166,198.4228,103.5645,256.5511,0.00034236,5.167e-05,0.0,0 STARLINK-3125,1 49451U 21104AV  24082.56470290  .00005167  00000-0  34236-3 0  9990,2 49451  53.2166 198.4228 0001467 103.5645 256.5511 15.08856718130518,6917.829,95.436,540.709,538.679,0.0
49451.0,STARLINK-3125,PAYLOAD,2024-03-22 15:08:33,15.08863452,0.0001428,53.2156,198.1235,90.3314,269.7841,0.00052457,8.076e-05,0.0,0 STARLINK-3125,1 49451U 21104AV  24082.63094085  .00008076  00000-0  52457-3 0  9999,2 49451  53.2156 198.1235 0001428  90.3314 269.7841 15.08863452130521,6917.809,95.436,540.662,538.686,0.0
49451.0,STARLINK-3125,PAYLOAD,2024-03-23 13:23:58,15.08831983,0.0001348,53.2155,193.9587,107.2569,252.8571,2.5989e-05,1.26e-06,0.0,0 STARLINK-3125,1 49451U 21104AV  24083.55831120  .00000126  00000-0  25989-4 0  9999,2 49451  53.2155 193.9587 0001348 107.2569 252.8571 15.08831983131746,6917.905,95.438,540.702,538.837,0.0
49451.0,STARLINK-3125,PAYLOAD,2024-03-24 13:14:44,15.08878707,0.0001486,53.2162,189.4962,94.6324,265.4837,0.0028897,0.00046051,0.0,0 STARLINK-3125,1 49451U 21104AV  24084.55190955  .00046051  00000-0  28897-2 0  9990,2 49451  53.2162 189.4962 0001486  94.6324 265.4837 15.08878707131898,6917.762,95.435,540.655,538.599,0.0
49451.0,STARLINK-3125,PAYLOAD,2024-03-25 00:22:26,15.08874711,0.0001675,53.217,187.4147,84.329,275.7893,0.0010635,0.00016694,0.0,0 STARLINK-3125,1 49451U 21104AV  24085.01558791  .00016694  00000-0  10635-2 0  9999,2 49451  53.2170 187.4147 0001675  84.3290 275.7893 15.08874711131963,6917.774,95.435,540.798,538.481,0.0
49451.0,STARLINK-3125,PAYLOAD,2024-03-25 13:05:32,15.08805568,0.0001425,53.2165,185.0391,72.2738,287.8409,-0.00051402,-8.451e-05,0.0,0 STARLINK-3125,1 49451U 21104AV  24085.54550986 -.00008451  00000-0 -51402-3 0  9997,2 49451  53.2165 185.0391 0001425  72.2738 287.8409 15.08805568132049,6917.986,95.44,540.836,538.865,0.0
49451.0,STARLINK-3125,PAYLOAD,2024-03-26 12:56:21,15.08821388,0.0001498,53.2167,180.5784,72.8775,287.2381,0.001767,0.00027931,0.0,0 STARLINK-3125,1 49451U 21104AV  24086.53914201  .00027931  00000-0  17670-2 0  9991,2 49451  53.2167 180.5784 0001498  72.8775 287.2381 15.08821388131112,6917.937,95.439,540.839,538.766,0.0
49451.0,STARLINK-3125,PAYLOAD,2024-03-27 12:47:07,15.08893224,0.0001487,53.2163,176.1178,67.627,292.488,0.0017952,0.0002844,0.0,0 STARLINK-3125,1 49451U 21104AV  24087.53272520  .00028440  00000-0  17952-2 0  9992,2 49451  53.2163 176.1178 0001487  67.6270 292.4880 15.08893224132342,6917.718,95.434,540.611,538.554,0.0
49451.0,STARLINK-3125,PAYLOAD,2024-03-27 22:19:26,15.08868988,0.0002515,53.2158,174.3315,73.7774,286.3495,0.00017554,2.509e-05,0.0,0 STARLINK-3125,1 49451U 21104AV  24087.93016250  .00002509  00000-0  17554-3 0  9999,2 49451  53.2158 174.3315 0002515  73.7774 286.3495 15.08868988131329,6917.792,95.436,541.397,537.917,0.0
49451.0,STARLINK-3125,PAYLOAD,2024-03-28 04:40:58,15.08871333,0.0002878,53.2165,173.1423,79.2234,280.9082,0.00080215,0.00012512,0.0,0 STARLINK-3125,1 49451U 21104AV  24088.19511973  .00012512  00000-0  80215-3 0  9999,2 49451  53.2165 173.1423 0002878  79.2234 280.9082 15.08871333132442,6917.785,95.436,541.641,537.659,0.0
49451.0,STARLINK-3125,PAYLOAD,2024-03-28 12:37:53,15.0885827,0.0001561,53.2174,171.6602,90.8452,269.2719,0.0013254,0.00020879,0.0,0 STARLINK-3125,1 49451U 21104AV  24088.52631658  .00020879  00000-0  13254-2 0  9992,2 49451  53.2174 171.6602 0001561  90.8452 269.2719 15.08858270132490,6917.825,95.436,540.769,538.61,0.0
49451.0,STARLINK-3125,PAYLOAD,2024-03-28 22:10:12,15.08857474,0.0001122,53.215,169.8737,74.9765,285.1351,0.001171,0.00018406,0.0,0 STARLINK-3125,1 49451U 21104AV  24088.92375609  .00018406  00000-0  11710-2 0  9995,2 49451  53.2150 169.8737 0001122  74.9765 285.1351 15.08857474131476,6917.827,95.436,540.468,538.916,0.0
49451.0,STARLINK-3125,PAYLOAD,2024-03-29 04:31:45,15.08847422,0.0002391,53.2157,168.6836,88.9401,271.1865,0.0011004,0.00017272,0.0,0 STARLINK-3125,1 49451U 21104AV  24089.18872054  .00017272  00000-0  11004-2 0  9996,2 49451  53.2157 168.6836 0002391  88.9401 271.1865 15.08847422132592,6917.858,95.437,541.377,538.069,0.0
49451.0,STARLINK-3125,PAYLOAD,2024-03-29 12:28:40,15.08844301,0.0001484,53.2159,167.1982,100.2941,259.8218,0.0004091,6.23e-05,0.0,0 STARLINK-3125,1 49451U 21104AV  24089.51991851  .00006230  00000-0  40910-3 0  9991,2 49451  53.2159 167.1982 0001484 100.2941 259.8218 15.08844301131563,6917.867,95.437,540.759,538.706,0.0
49451.0,STARLINK-3125,PAYLOAD,2024-03-29 22:00:59,15.08840295,0.000107,53.2136,165.4121,80.9224,279.1889,0.00044494,6.801e-05,0.0,0 STARLINK-3125,1 49451U 21104AV  24089.91736071  .00006801  00000-0  44494-3 0  9991,2 49451  53.2136 165.4121 0001070  80.9224 279.1889 15.08840295131627,6917.879,95.438,540.485,539.004,0.0
49451.0,STARLINK-3125,PAYLOAD,2024-03-30 12:19:29,15.08827662,0.0001942,53.2169,162.736,85.9302,274.1912,0.00017136,2.439e-05,0.0,0 STARLINK-3125,1 49451U 21104AV  24090.51353125  .00002439  00000-0  17136-3 0  9990,2 49451  53.2169 162.7360 0001942  85.9302 274.1912 15.08827662132792,6917.918,95.438,541.127,538.44,0.0
49451.0,STARLINK-3125,PAYLOAD,2024-03-30 21:51:47,15.08843382,0.0001487,53.215,160.9531,83.5241,276.5921,0.00047218,7.235e-05,0.0,0 STARLINK-3125,1 49451U 21104AV  24090.91096931  .00007235  00000-0  47218-3 0  9996,2 49451  53.2150 160.9531 0001487  83.5241 276.5921 15.08843382131772,6917.87,95.437,540.764,538.706,0.0
49451.0,STARLINK-3125,PAYLOAD,2024-03-31 04:13:19,15.08870975,0.0001894,53.2139,159.7648,78.9919,281.1286,0.0013143,0.00020709,0.0,0 STARLINK-3125,1 49451U 21104AV  24091.17592397  .00020709  00000-0  13143-2 0  9992,2 49451  53.2139 159.7648 0001894  78.9919 281.1286 15.08870975132894,6917.786,95.436,540.961,538.34,0.0
